#cV2022  1 11  0  0  0.00000000    1900   SLR   ECF FIT NSGF
## 2192 172800.00000000   180.00000000 59590 0.0000000000000
+    1   L56  0  0  0  0  0  0  0  0  0  0  0  0  0  0  0  0
+          0  0  0  0  0  0  0  0  0  0  0  0  0  0  0  0  0
+          0  0  0  0  0  0  0  0  0  0  0  0  0  0  0  0  0
+          0  0  0  0  0  0  0  0  0  0  0  0  0  0  0  0  0
+          0  0  0  0  0  0  0  0  0  0  0  0  0  0  0  0  0
++         0  0  0  0  0  0  0  0  0  0  0  0  0  0  0  0  0
++         0  0  0  0  0  0  0  0  0  0  0  0  0  0  0  0  0
++         0  0  0  0  0  0  0  0  0  0  0  0  0  0  0  0  0
++         0  0  0  0  0  0  0  0  0  0  0  0  0  0  0  0  0
++         0  0  0  0  0  0  0  0  0  0  0  0  0  0  0  0  0
%c L  cc UTC ccc cccc cccc cccc cccc ccccc ccccc ccccc ccccc
%c cc cc ccc ccc cccc cccc cccc cccc ccccc ccccc ccccc ccccc
%f  0.0000000  0.000000000  0.00000000000  0.000000000000000
%f  0.0000000  0.000000000  0.00000000000  0.000000000000000
%i    0    0    0    0      0      0      0      0         0
%i    0    0    0    0      0      0      0      0         0
/*                                                          
/* Earth-centered-fixed orbital predictions from SGF ILRS AC
/* The underlying ECF frame is that of IERS/ITRF            
/* Note: Solution based on 4-day long arc                   
/*                                                          
*  2022  1 14 13  0  0.00000000
PL56   1136.759588     60.848065   7083.774876
VL56  -9342.636700 -74700.904000   2114.124200
*  2022  1 14 13  3  0.00000000
PL56    932.403151  -1274.552373   6998.398801
VL56 -13291.714000 -73231.102000 -11573.347000
*  2022  1 14 13  6  0.00000000
PL56    661.450741  -2559.690683   6669.520045
VL56 -16709.337000 -69134.260000 -24863.445000
*  2022  1 14 13  9  0.00000000
PL56    335.172351  -3748.533963   6108.464145
VL56 -19410.414000 -62565.146000 -37295.989000
*  2022  1 14 13 12  0.00000000
PL56    -32.082820  -4798.647026   5334.611225
VL56 -21239.228000 -53767.475000 -48438.637000
*  2022  1 14 13 15  0.00000000
PL56   -423.484667  -5672.726166   4374.765202
VL56 -22077.038000 -43066.222000 -57901.130000
*  2022  1 14 13 18  0.00000000
PL56   -820.450159  -6339.971990   3262.267838
VL56 -21848.823000 -30857.073000 -65349.704000
*  2022  1 14 13 21  0.00000000
PL56  -1203.476603  -6777.237113   2035.861132
VL56 -20528.034000 -17591.961000 -70520.078000
*  2022  1 14 13 24  0.00000000
PL56  -1553.040260  -6969.890199    738.336906
VL56 -18139.153000  -3762.193100 -73228.109000
*  2022  1 14 13 27  0.00000000
PL56  -1850.521158  -6912.354462   -584.983138
VL56 -14757.832000  10120.996000 -73377.920000
*  2022  1 14 13 30  0.00000000
PL56  -2079.103060  -6608.281806  -1887.876948
VL56 -10508.175000  23546.876000 -70965.629000
*  2022  1 14 13 33  0.00000000
PL56  -2224.603266  -6070.356401  -3124.885094
VL56  -5557.716700  36025.849000 -66079.505000
*  2022  1 14 13 36  0.00000000
PL56  -2276.193375  -5319.739122  -4252.937901
VL56   -110.256950  47108.775000 -58895.840000
*  2022  1 14 13 39  0.00000000
PL56  -2226.973607  -4385.180891  -5232.875120
VL56   5603.109800  56404.019000 -49671.099000
*  2022  1 14 13 42  0.00000000
PL56  -2074.374792  -3301.860113  -6030.794952
VL56  11334.020000  63591.019000 -38731.148000
*  2022  1 14 13 45  0.00000000
PL56  -1820.374819  -2110.007238  -6619.193143
VL56  16827.405000  68430.441000 -26458.734000
*  2022  1 14 13 48  0.00000000
PL56  -1471.522110   -853.375799  -6977.862215
VL56  21832.262000  70770.969000 -13279.410000
*  2022  1 14 13 51  0.00000000
PL56  -1038.769475    422.375321  -7094.530606
VL56  26111.885000  70552.470000    353.020210
*  2022  1 14 13 54  0.00000000
PL56   -537.127038   1671.328782  -6965.239655
VL56  29453.766000  67806.187000  13971.090000
*  2022  1 14 13 57  0.00000000
PL56     14.855474   2848.936823  -6594.460688
VL56  31678.550000  62652.496000  27108.000000
*  2022  1 14 14  0  0.00000000
PL56    595.761758   3913.589604  -5994.953657
VL56  32648.409000  55296.542000  39312.064000
*  2022  1 14 14  3  0.00000000
PL56   1182.122336   4828.081827  -5187.363261
VL56  32274.080000  46021.154000  50161.278000
*  2022  1 14 14  6  0.00000000
PL56   1749.340612   5560.928866  -4199.555689
VL56  30520.361000  35177.346000  59277.610000
*  2022  1 14 14  9  0.00000000
PL56   2272.701725   6087.489427  -3065.703827
VL56  27409.702000  23172.183000  66340.501000
*  2022  1 14 14 12  0.00000000
PL56   2728.424750   6390.844972  -1825.138116
VL56  23023.441000  10454.104000  71099.321000
*  2022  1 14 14 15  0.00000000
PL56   3094.713858   6462.395981   -520.993209
VL56  17500.327000  -2503.977000  73383.582000
*  2022  1 14 14 18  0.00000000
PL56   3352.756842   6302.136926    801.307590
VL56  11032.138000 -15223.299000  73110.365000
*  2022  1 14 14 21  0.00000000
PL56   3487.619514   5918.589833   2095.665995
VL56   3856.625100 -27238.228000  70287.867000
*  2022  1 14 14 24  0.00000000
PL56   3488.992362   5328.401756   3316.952790
VL56  -3751.848200 -38114.588000  65015.260000
*  2022  1 14 14 27  0.00000000
PL56   3351.751948   4555.623021   4422.616360
VL56 -11493.396000 -47466.656000  57478.787000
*  2022  1 14 14 30  0.00000000
PL56   3076.309435   3630.701489   5374.186763
VL56 -19055.135000 -54971.431000  47944.214000
*  2022  1 14 14 33  0.00000000
PL56   2668.724346   2589.244833   6138.614661
VL56 -26124.446000 -60380.132000  36746.017000
*  2022  1 14 14 36  0.00000000
PL56   2140.590735   1470.616249   6689.393605
VL56 -32401.065000 -63525.256000  24274.477000
*  2022  1 14 14 39  0.00000000
PL56   1508.703793    316.425794   7007.445599
VL56 -37609.281000 -64325.008000  10962.238000
*  2022  1 14 14 42  0.00000000
PL56    794.516325   -831.022782   7081.746779
VL56 -41509.036000 -62784.049000  -2730.753900
*  2022  1 14 14 45  0.00000000
PL56     23.407292  -1930.277315   6909.691001
VL56 -43905.731000 -58991.890000 -16331.729000
*  2022  1 14 14 48  0.00000000
PL56   -776.218647  -2942.232164   6497.180008
VL56 -44659.114000 -53118.863000 -29370.692000
*  2022  1 14 14 51  0.00000000
PL56  -1573.970639  -3831.521266   5858.434288
VL56 -43689.661000 -45408.727000 -41395.896000
*  2022  1 14 14 54  0.00000000
PL56  -2338.614457  -4567.764499   5015.536169
VL56 -40983.891000 -36170.039000 -51987.905000
*  2022  1 14 14 57  0.00000000
PL56  -3039.294081  -5126.637108   3997.713543
VL56 -36597.682000 -25765.064000 -60774.656000
*  2022  1 14 15  0  0.00000000
PL56  -3646.786846  -5490.718927   2840.358855
VL56 -30656.350000 -14596.218000 -67445.529000
*  2022  1 14 15  3  0.00000000
PL56  -4134.729344  -5650.077802   1583.808367
VL56 -23351.506000  -3090.397200 -71763.605000
*  2022  1 14 15  6  0.00000000
PL56  -4480.760945  -5602.561115    271.926170
VL56 -14935.039000   8317.795800 -73575.216000
*  2022  1 14 15  9  0.00000000
PL56  -4667.531499  -5353.777259  -1049.458968
VL56  -5710.027600  19203.547000 -72816.545000
*  2022  1 14 15 12  0.00000000
PL56  -4683.519571  -4916.762996  -2334.202627
VL56   3981.181800  29169.141000 -69516.476000
*  2022  1 14 15 15  0.00000000
PL56  -4523.615053  -4311.348033  -3537.506952
VL56  13771.039000  37860.006000 -63795.097000
*  2022  1 14 15 18  0.00000000
PL56  -4189.437134  -3563.253040  -4617.516703
VL56  23281.932000  44978.109000 -55858.041000
*  2022  1 14 15 21  0.00000000
PL56  -3689.378600  -2702.975282  -5536.783387
VL56  32141.346000  50292.193000 -45987.624000
*  2022  1 14 15 24  0.00000000
PL56  -3038.380727  -1764.518738  -6263.545575
VL56  39996.543000  53644.761000 -34531.334000
*  2022  1 14 15 27  0.00000000
PL56  -2257.454955   -784.029958  -6772.785968
VL56  46527.956000  54955.587000 -21888.713000
*  2022  1 14 15 30  0.00000000
PL56  -1372.974293    201.601796  -7047.039545
VL56  51461.235000  54222.148000  -8496.896700
*  2022  1 14 15 33  0.00000000
PL56   -415.767406   1156.122955  -7076.937982
VL56  54577.162000  51516.991000   5183.974500
*  2022  1 14 15 36  0.00000000
PL56    579.950807   2045.228570  -6861.495402
VL56  55719.980000  46983.135000  18685.118000
*  2022  1 14 15 39  0.00000000
PL56   1577.784847   2837.775726  -6408.136751
VL56  54804.185000  40827.727000  31543.170000
*  2022  1 14 15 42  0.00000000
PL56   2540.472421   3506.866762  -5732.464356
VL56  51819.542000  33313.797000  43315.290000
*  2022  1 14 15 45  0.00000000
PL56   3431.263506   4030.766597  -4857.759295
VL56  46833.403000  24750.093000  53593.526000
*  2022  1 14 15 48  0.00000000
PL56   4215.320956   4393.626918  -3814.229115
VL56  39990.771000  15479.924000  62018.538000
*  2022  1 14 15 51  0.00000000
PL56   4861.096134   4585.991379  -2638.008760
VL56  31511.255000   5867.924400  68293.197000
*  2022  1 14 15 54  0.00000000
PL56   5341.619894   4605.053839  -1369.933861
VL56  21682.687000  -3714.068400  72194.033000
*  2022  1 14 15 57  0.00000000
PL56   5635.647843   4454.654020    -54.124674
VL56  10851.428000 -12901.944000  73580.896000
*  2022  1 14 16  0  0.00000000
PL56   5728.601041   4145.006824   1263.569375
VL56   -590.564200 -21353.846000  72402.554000
*  2022  1 14 16  3  0.00000000
PL56   5613.255871   3692.175657   2537.201063
VL56 -12220.700000 -28763.994000  68699.434000
*  2022  1 14 16  6  0.00000000
PL56   5290.145259   3117.310583   3722.367809
VL56 -23602.691000 -34874.792000  62602.188000
*  2022  1 14 16  9  0.00000000
PL56   4767.645470   2445.690715   4777.792520
VL56 -34304.232000 -39486.423000  54326.167000
*  2022  1 14 16 12  0.00000000
PL56   4061.749990   1705.619864   5666.772471
VL56 -43913.929000 -42463.398000  44162.746000
*  2022  1 14 16 15  0.00000000
PL56   3195.547536    927.234366   6358.447996
VL56 -52057.603000 -43738.079000  32467.509000
*  2022  1 14 16 18  0.00000000
PL56   2198.426788    141.273886   6828.845494
VL56 -58411.470000 -43310.775000  19647.522000
*  2022  1 14 16 21  0.00000000
PL56   1105.053783   -622.127161   7061.669963
VL56 -62714.557000 -41247.785000   6146.792300
EOF
